HAWK-2A                 
1 47505U 21006CW  26068.67946547  .00008113  00000+0  25431-3 0  9990
2 47505  97.2459 115.6184 0006450 187.1463 172.9689 15.33304498284242
STARLINK-34934          
1 65897U 25224R   26068.27912694  .00023731  00000+0  81098-3 0  9996
2 65897  53.1605  13.0952 0001412  84.2251 275.8911 15.30192145 24760
